GLOBALSTAR M063         
1 26081U 00008A   24257.85030097 -.00000080  00000+0  40708-4 0  9998
2 26081  51.9939 119.3385 0004948 132.4873 309.5045 11.86157320124847
GLOBALSTAR M062         
1 26082U 00008B   24257.84228819 -.00000058  00000+0  28427-3 0  9997
2 26082  51.9837 188.4173 0006542 244.2730 152.5671 12.43445753124747
GLOBALSTAR M064         
1 26084U 00008D   24258.21183039 -.00000066  00000+0  25030-3 0  9991
2 26084  52.0008 220.4679 0001133 257.3152 102.7554 11.88522807134396
GLOBALSTAR M065         
1 31571U 07020A   24257.99600273  .00000008  00000+0  62661-3 0  9993
2 31571  51.9921 346.8890 0010340  57.6389 113.6805 12.61975593798848
GLOBALSTAR M069         
1 31573U 07020C   24256.71888895 -.00000023  00000+0  46557-3 0  9996
2 31573  51.9957 306.6315 0000407 193.5208 323.2223 12.58764620799508
GLOBALSTAR M072         
1 31574U 07020D   24257.88626296 -.00000061  00000+0  24034-3 0  9999
2 31574  52.0101  38.9554 0001126 104.5029  64.9686 12.62263782798086
GLOBALSTAR M071         
1 31576U 07020F   24257.17038050 -.00000033  00000+0  39598-3 0  9998
2 31576  52.0079 310.3529 0000827 218.5370 159.5050 12.62288362799485
